[{"OBJECT_NAME":"KHAYYAM","OBJECT_ID":"2022-096A","EPOCH":"2026-03-09T23:16:46.350624","MEAN_MOTION":15.24771015,"ECCENTRICITY":0.00024081,"INCLINATION":97.351,"RA_OF_ASC_NODE":334.9969,"ARG_OF_PERICENTER":70.558,"MEAN_ANOMALY":289.5917,"EPHEMERIS_TYPE":0,"CLASSIFICATION_TYPE":"U","NORAD_CAT_ID":53370,"ELEMENT_SET_NO":999,"REV_AT_EPOCH":19946,"BSTAR":0.00026923471,"MEAN_MOTION_DOT":6.603e-5,"MEAN_MOTION_DDOT":0},{"OBJECT_NAME":"SITRO-TD-4","OBJECT_ID":"2025-313T","EPOCH":"2026-03-09T22:34:21.722880","MEAN_MOTION":15.21536332,"ECCENTRICITY":0.00145785,"INCLINATION":97.4001,"RA_OF_ASC_NODE":145.1931,"ARG_OF_PERICENTER":358.8539,"MEAN_ANOMALY":1.2661,"EPHEMERIS_TYPE":0,"CLASSIFICATION_TYPE":"U","NORAD_CAT_ID":67265,"ELEMENT_SET_NO":999,"REV_AT_EPOCH":1085,"BSTAR":0.00050945291,"MEAN_MOTION_DOT":0.00011446,"MEAN_MOTION_DDOT":0}]
